{
  "type": "FeatureCollection",
  "features": [
    {
      "type": "Feature",
      "properties": {
        "norad_id": 41434,
        "name": "BEIDOU-2 IGSO-6 (C13)",
        "group": "beidou",
        "lat": -55.04679749509328,
        "lon": -15.727897556539826,
        "alt_km": 35661.80437246757,
        "timestamp": "2025-12-04T10:51:50.370681+00:00",
        "meta_object_name": "BEIDOU-2 IGSO-6 (C13)",
        "meta_object_id": "2016-021A",
        "meta_epoch": "2025-12-01T15:57:35.287200",
        "meta_mean_motion": 1.00256562,
        "meta_eccentricity": 0.00591323,
        "meta_inclination": 59.9483,
        "meta_ra_of_asc_node": 40.0119,
        "meta_arg_of_pericenter": 231.2834,
        "meta_mean_anomaly": 130.8807,
        "meta_ephemeris_type": 0,
        "meta_classification_type": "U",
        "meta_norad_cat_id": 41434,
        "meta_element_set_no": 999,
        "meta_rev_at_epoch": 3550,
        "meta_bstar": 0,
        "meta_mean_motion_dot": -1.55e-06,
        "meta_mean_motion_ddot": 0,
        "tle_line1": "1 41434U 16021A   25335.66499175 -.00000155  00000+0  00000+0 0  9991",
        "tle_line2": "2 41434  59.9483  40.0119 0059132 231.2834 130.8807  1.00256562 35501"
      },
      "geometry": {
        "type": "Point",
        "coordinates": [
          -15.727897556539826,
          -55.04679749509328
        ]
      }
    },
    {
      "type": "Feature",
      "properties": {
        "norad_id": 41586,
        "name": "BEIDOU-2 G7 (C03)",
        "group": "beidou",
        "lat": -1.7031661277091632,
        "lon": -13.092019113886753,
        "alt_km": 35784.876199751205,
        "timestamp": "2025-12-04T10:51:50.370693+00:00",
        "meta_object_name": "BEIDOU-2 G7 (C03)",
        "meta_object_id": "2016-037A",
        "meta_epoch": "2025-12-03T19:25:06.201984",
        "meta_mean_motion": 1.00271395,
        "meta_eccentricity": 0.00043865,
        "meta_inclination": 1.7336,
        "meta_ra_of_asc_node": 67.6984,
        "meta_arg_of_pericenter": 4.1798,
        "meta_mean_anomaly": 42.7772,
        "meta_ephemeris_type": 0,
        "meta_classification_type": "U",
        "meta_norad_cat_id": 41586,
        "meta_element_set_no": 999,
        "meta_rev_at_epoch": 493,
        "meta_bstar": 0,
        "meta_mean_motion_dot": -3.37e-06,
        "meta_mean_motion_ddot": 0,
        "tle_line1": "1 41586U 16037A   25337.80909956 -.00000337  00000+0  00000+0 0  9999",
        "tle_line2": "2 41586   1.7336  67.6984 0004386   4.1798  42.7772  1.00271395  4939"
      },
      "geometry": {
        "type": "Point",
        "coordinates": [
          -13.092019113886753,
          -1.7031661277091632
        ]
      }
    },
    {
      "type": "Feature",
      "properties": {
        "norad_id": 43001,
        "name": "BEIDOU-3 M1 (C19)",
        "group": "beidou",
        "lat": 18.985667161402638,
        "lon": -123.62900268871458,
        "alt_km": 21546.47132876292,
        "timestamp": "2025-12-04T10:51:50.370704+00:00",
        "meta_object_name": "BEIDOU-3 M1 (C19)",
        "meta_object_id": "2017-069A",
        "meta_epoch": "2025-12-03T03:27:53.485056",
        "meta_mean_motion": 1.86230745,
        "meta_eccentricity": 0.00088373,
        "meta_inclination": 56.5186,
        "meta_ra_of_asc_node": 69.5514,
        "meta_arg_of_pericenter": 303.7187,
        "meta_mean_anomaly": 56.1997,
        "meta_ephemeris_type": 0,
        "meta_classification_type": "U",
        "meta_norad_cat_id": 43001,
        "meta_element_set_no": 999,
        "meta_rev_at_epoch": 5495,
        "meta_bstar": 0,
        "meta_mean_motion_dot": -4.9e-07,
        "meta_mean_motion_ddot": 0,
        "tle_line1": "1 43001U 17069A   25337.14436904 -.00000049  00000+0  00000+0 0  9994",
        "tle_line2": "2 43001  56.5186  69.5514 0008837 303.7187  56.1997  1.86230745 54952"
      },
      "geometry": {
        "type": "Point",
        "coordinates": [
          -123.62900268871458,
          18.985667161402638
        ]
      }
    },
    {
      "type": "Feature",
      "properties": {
        "norad_id": 43002,
        "name": "BEIDOU-3 M2 (C20)",
        "group": "beidou",
        "lat": -15.300024972043163,
        "lon": -100.03802484619044,
        "alt_km": 21542.29847139592,
        "timestamp": "2025-12-04T10:51:50.370716+00:00",
        "meta_object_name": "BEIDOU-3 M2 (C20)",
        "meta_object_id": "2017-069B",
        "meta_epoch": "2025-12-01T11:19:28.056000",
        "meta_mean_motion": 1.86230616,
        "meta_eccentricity": 0.00061649,
        "meta_inclination": 56.5166,
        "meta_ra_of_asc_node": 69.6425,
        "meta_arg_of_pericenter": 332.397,
        "meta_mean_anomaly": 27.5733,
        "meta_ephemeris_type": 0,
        "meta_classification_type": "U",
        "meta_norad_cat_id": 43002,
        "meta_element_set_no": 999,
        "meta_rev_at_epoch": 5491,
        "meta_bstar": 0,
        "meta_mean_motion_dot": -4.1e-07,
        "meta_mean_motion_ddot": 0,
        "tle_line1": "1 43002U 17069B   25335.47185250 -.00000041  00000+0  00000+0 0  9996",
        "tle_line2": "2 43002  56.5166  69.6425 0006164 332.3970  27.5733  1.86230616 54915"
      },
      "geometry": {
        "type": "Point",
        "coordinates": [
          -100.03802484619044,
          -15.300024972043163
        ]
      }
    },
    {
      "type": "Feature",
      "properties": {
        "norad_id": 43107,
        "name": "BEIDOU-3 M7 (C27)",
        "group": "beidou",
        "lat": 8.678045839527895,
        "lon": -44.66785034071458,
        "alt_km": 21523.461227702675,
        "timestamp": "2025-12-04T10:51:50.370726+00:00",
        "meta_object_name": "BEIDOU-3 M7 (C27)",
        "meta_object_id": "2018-003A",
        "meta_epoch": "2025-12-02T06:56:05.635968",
        "meta_mean_motion": 1.86232265,
        "meta_eccentricity": 0.0002591,
        "meta_inclination": 54.5061,
        "meta_ra_of_asc_node": 309.1785,
        "meta_arg_of_pericenter": 70.8685,
        "meta_mean_anomaly": 289.1495,
        "meta_ephemeris_type": 0,
        "meta_classification_type": "U",
        "meta_norad_cat_id": 43107,
        "meta_element_set_no": 999,
        "meta_rev_at_epoch": 5368,
        "meta_bstar": 0,
        "meta_mean_motion_dot": -6.3e-07,
        "meta_mean_motion_ddot": 0,
        "tle_line1": "1 43107U 18003A   25336.28895412 -.00000063  00000+0  00000+0 0  9993",
        "tle_line2": "2 43107  54.5061 309.1785 0002591  70.8685 289.1495  1.86232265 53687"
      },
      "geometry": {
        "type": "Point",
        "coordinates": [
          -44.66785034071458,
          8.678045839527895
        ]
      }
    },
    {
      "type": "Feature",
      "properties": {
        "norad_id": 43108,
        "name": "BEIDOU-3 M8 (C28)",
        "group": "beidou",
        "lat": 36.98887870857995,
        "lon": -18.424142539560325,
        "alt_km": 21532.80326034431,
        "timestamp": "2025-12-04T10:51:50.370737+00:00",
        "meta_object_name": "BEIDOU-3 M8 (C28)",
        "meta_object_id": "2018-003B",
        "meta_epoch": "2025-12-03T07:23:02.934240",
        "meta_mean_motion": 1.8623075,
        "meta_eccentricity": 0.0004799,
        "meta_inclination": 54.498,
        "meta_ra_of_asc_node": 309.1259,
        "meta_arg_of_pericenter": 273.9928,
        "meta_mean_anomaly": 85.9385,
        "meta_ephemeris_type": 0,
        "meta_classification_type": "U",
        "meta_norad_cat_id": 43108,
        "meta_element_set_no": 999,
        "meta_rev_at_epoch": 5371,
        "meta_bstar": 0,
        "meta_mean_motion_dot": -6.7e-07,
        "meta_mean_motion_ddot": 0,
        "tle_line1": "1 43108U 18003B   25337.30767285 -.00000067  00000+0  00000+0 0  9998",
        "tle_line2": "2 43108  54.4980 309.1259 0004799 273.9928  85.9385  1.86230750 53712"
      },
      "geometry": {
        "type": "Point",
        "coordinates": [
          -18.424142539560325,
          36.98887870857995
        ]
      }
    },
    {
      "type": "Feature",
      "properties": {
        "norad_id": 43207,
        "name": "BEIDOU-3 M4 (C22)",
        "group": "beidou",
        "lat": 50.89629322434699,
        "lon": -164.9302131890444,
        "alt_km": 21523.36975198013,
        "timestamp": "2025-12-04T10:51:50.370749+00:00",
        "meta_object_name": "BEIDOU-3 M4 (C22)",
        "meta_object_id": "2018-018A",
        "meta_epoch": "2025-12-02T03:19:43.852800",
        "meta_mean_motion": 1.86230706,
        "meta_eccentricity": 0.00040749,
        "meta_inclination": 56.4768,
        "meta_ra_of_asc_node": 69.6557,
        "meta_arg_of_pericenter": 15.1369,
        "meta_mean_anomaly": 344.8773,
        "meta_ephemeris_type": 0,
        "meta_classification_type": "U",
        "meta_norad_cat_id": 43207,
        "meta_element_set_no": 999,
        "meta_rev_at_epoch": 5307,
        "meta_bstar": 0,
        "meta_mean_motion_dot": -4.5e-07,
        "meta_mean_motion_ddot": 0,
        "tle_line1": "1 43207U 18018A   25336.13870200 -.00000045  00000+0  00000+0 0  9992",
        "tle_line2": "2 43207  56.4768  69.6557 0004074  15.1369 344.8773  1.86230706 53076"
      },
      "geometry": {
        "type": "Point",
        "coordinates": [
          -164.9302131890444,
          50.89629322434699
        ]
      }
    }
  ]
}